NORAD_CAT_ID,OBJECT_NAME,OBJECT_TYPE,EPOCH,MEAN_MOTION,ECCENTRICITY,INCLINATION,RA_OF_ASC_NODE,ARG_OF_PERICENTER,MEAN_ANOMALY,BSTAR,MEAN_MOTION_DOT,MEAN_MOTION_DDOT,TLE_LINE0,TLE_LINE1,TLE_LINE2,SEMIMAJOR_AXIS,PERIOD,APOGEE,PERIGEE,DECAYED
51857.0,STARLINK-3571,PAYLOAD,2023-04-01 21:03:45,15.08837457,0.0001469,53.2151,155.1616,94.9852,265.1307,0.00075027,0.00011672,0.0,0 STARLINK-3571,1 51857U 22022F   23091.87761432  .00011672  00000-0  75027-3 0  9998,2 51857  53.2151 155.1616 0001469  94.9852 265.1307 15.08837457 61062,6917.888,95.438,540.769,538.737,0.0
51857.0,STARLINK-3571,PAYLOAD,2023-04-02 12:57:37,15.08850315,0.0001433,53.2153,152.1882,94.5882,265.5274,0.00078676,0.00012259,0.0,0 STARLINK-3571,1 51857U 22022F   23092.54001353  .00012259  00000-0  78676-3 0  9997,2 51857  53.2153 152.1882 0001433  94.5882 265.5274 15.08850315 61162,6917.849,95.437,540.705,538.723,0.0
51857.0,STARLINK-3571,PAYLOAD,2023-04-02 20:54:32,15.08840456,0.000107,53.2144,150.7013,102.9786,257.1325,0.00023051,3.383e-05,0.0,0 STARLINK-3571,1 51857U 22022F   23092.87121314  .00003383  00000-0  23051-3 0  9998,2 51857  53.2144 150.7013 0001070 102.9786 257.1325 15.08840456 61211,6917.879,95.438,540.484,539.004,0.0
51857.0,STARLINK-3571,PAYLOAD,2023-04-03 12:48:24,15.08846867,0.0001328,53.2142,147.7272,94.2036,265.9108,0.00043673,6.671e-05,0.0,0 STARLINK-3571,1 51857U 22022F   23093.53361360  .00006671  00000-0  43673-3 0  9994,2 51857  53.2142 147.7272 0001328  94.2036 265.9108 15.08846867 61318,6917.859,95.437,540.643,538.806,0.0
51857.0,STARLINK-3571,PAYLOAD,2023-04-03 20:45:19,15.08850528,0.0001302,53.2138,146.241,97.2994,262.8146,0.00063275,9.799e-05,0.0,0 STARLINK-3571,1 51857U 22022F   23093.86481226  .00009799  00000-0  63275-3 0  9998,2 51857  53.2138 146.2410 0001302  97.2994 262.8146 15.08850528 61361,6917.848,95.437,540.614,538.813,0.0
51857.0,STARLINK-3571,PAYLOAD,2023-04-04 11:03:47,15.088594,0.000139,53.2142,143.5644,94.7641,265.351,0.00057983,8.957e-05,0.0,0 STARLINK-3571,1 51857U 22022F   23094.46096684  .00008957  00000-0  57983-3 0  9999,2 51857  53.2142 143.5644 0001390  94.7641 265.3510 15.08859400 61454,6917.821,95.436,540.648,538.725,0.0
51857.0,STARLINK-3571,PAYLOAD,2023-04-05 02:57:39,15.08843058,0.0001408,53.2162,140.5903,100.8117,259.3034,7.8743e-05,9.66e-06,0.0,0 STARLINK-3571,1 51857U 22022F   23095.12336867  .00000966  00000-0  78743-4 0  9993,2 51857  53.2162 140.5903 0001408 100.8117 259.3034 15.08843058 61555,6917.871,95.437,540.71,538.762,0.0
51857.0,STARLINK-3571,PAYLOAD,2023-04-05 09:19:11,15.08841007,0.0001456,53.2161,139.3982,107.7102,252.4049,2.5216e-05,1.13e-06,0.0,0 STARLINK-3571,1 51857U 22022F   23095.38833044  .00000113  00000-0  25216-4 0  9991,2 51857  53.2161 139.3982 0001456 107.7102 252.4049 15.08841007 61596,6917.877,95.437,540.75,538.735,0.0
51857.0,STARLINK-3571,PAYLOAD,2023-04-05 20:26:53,15.08840538,0.0001313,53.2148,137.3159,100.3373,259.7767,7.9666e-05,9.8e-06,0.0,0 STARLINK-3571,1 51857U 22022F   23095.85201228  .00000980  00000-0  79666-4 0  9996,2 51857  53.2148 137.3159 0001313 100.3373 259.7767 15.08840538 61669,6917.879,95.438,540.652,538.835,0.0
51857.0,STARLINK-3571,PAYLOAD,2023-04-06 12:20:44,15.08849683,0.0001386,53.2151,134.3428,91.0058,269.1093,0.00025558,3.783e-05,0.0,0 STARLINK-3571,1 51857U 22022F   23096.51440907  .00003783  00000-0  25558-3 0  9993,2 51857  53.2151 134.3428 0001386  91.0058 269.1093 15.08849683 61763,6917.851,95.437,540.675,538.757,0.0
51857.0,STARLINK-3571,PAYLOAD,2023-04-06 13:56:07,15.08853149,0.0001435,53.2157,134.0456,88.6068,271.5089,0.00028943,4.323e-05,0.0,0 STARLINK-3571,1 51857U 22022F   23096.58064751  .00004323  00000-0  28943-3 0  9991,2 51857  53.2157 134.0456 0001435  88.6068 271.5089 15.08853149 61770,6917.84,95.437,540.698,538.712,0.0
51857.0,STARLINK-3571,PAYLOAD,2023-04-07 05:49:59,15.08843623,0.0001668,53.2149,131.0711,108.0899,252.0275,0.00017262,2.461e-05,0.0,0 STARLINK-3571,1 51857U 22022F   23097.24305108  .00002461  00000-0  17262-3 0  9992,2 51857  53.2149 131.0711 0001668 108.0899 252.0275 15.08843623 61877,6917.869,95.437,540.888,538.58,0.0
51857.0,STARLINK-3571,PAYLOAD,2023-04-07 09:00:45,15.08843501,0.0001493,53.2149,130.4781,101.6194,258.4966,0.00016805,2.388e-05,0.0,0 STARLINK-3571,1 51857U 22022F   23097.37553146  .00002388  00000-0  16805-3 0  9993,2 51857  53.2149 130.4781 0001493 101.6194 258.4966 15.08843501 61894,6917.87,95.437,540.768,538.702,0.0
51857.0,STARLINK-3571,PAYLOAD,2023-04-08 07:16:09,15.08840895,0.0001427,53.2142,126.3134,94.2545,265.861,5.0472e-05,5.15e-06,0.0,0 STARLINK-3571,1 51857U 22022F   23098.30289193  .00000515  00000-0  50472-4 0  9994,2 51857  53.2142 126.3134 0001427  94.2545 265.8610 15.08840895 62035,6917.878,95.437,540.73,538.755,0.0
51857.0,STARLINK-3571,PAYLOAD,2023-04-09 11:53:06,15.08843382,0.0001416,53.2152,120.9598,100.7211,259.394,0.00010963,1.457e-05,0.0,0 STARLINK-3571,1 51857U 22022F   23099.49521026  .00001457  00000-0  10963-3 0  9995,2 51857  53.2152 120.9598 0001416 100.7211 259.3940 15.08843382 62219,6917.87,95.437,540.715,538.755,0.0
51857.0,STARLINK-3571,PAYLOAD,2023-04-09 18:14:38,15.08836526,0.0001349,53.2156,119.7711,93.4927,266.622,-4.9206e-06,-3.66e-06,0.0,0 STARLINK-3571,1 51857U 22022F   23099.76017255 -.00000366  00000-0 -49206-5 0  9993,2 51857  53.2156 119.7711 0001349  93.4927 266.6220 15.08836526 62251,6917.891,95.438,540.689,538.823,0.0
51857.0,STARLINK-3571,PAYLOAD,2023-04-10 13:19:16,15.08844617,0.0001367,53.2153,116.2028,103.1516,256.9628,0.00011086,1.477e-05,0.0,0 STARLINK-3571,1 51857U 22022F   23100.55505117  .00001477  00000-0  11086-3 0  9997,2 51857  53.2153 116.2028 0001367 103.1516 256.9628 15.08844617 62371,6917.866,95.437,540.677,538.786,0.0
51857.0,STARLINK-3571,PAYLOAD,2023-04-10 18:05:25,15.08841724,0.0001228,53.214,115.3113,99.2201,260.893,7.3752e-05,8.86e-06,0.0,0 STARLINK-3571,1 51857U 22022F   23100.75377294  .00000886  00000-0  73752-4 0  9994,2 51857  53.2140 115.3113 0001228  99.2201 260.8930 15.08841724 62404,6917.875,95.437,540.59,538.891,0.0
51857.0,STARLINK-3571,PAYLOAD,2023-04-11 09:59:17,15.08844193,0.0001299,53.2148,112.3373,95.9691,264.1449,0.00010927,1.452e-05,0.0,0 STARLINK-3571,1 51857U 22022F   23101.41617277  .00001452  00000-0  10927-3 0  9990,2 51857  53.2148 112.3373 0001299  95.9691 264.1449 15.08844193 62507,6917.868,95.437,540.631,538.834,0.0
51857.0,STARLINK-3571,PAYLOAD,2023-04-11 17:56:13,15.08834434,0.0001296,53.2147,110.8505,94.7666,265.3474,-2.4648e-05,-6.8e-06,0.0,0 STARLINK-3571,1 51857U 22022F   23101.74737852 -.00000680  00000-0 -24648-4 0  9998,2 51857  53.2147 110.8505 0001296  94.7666 265.3474 15.08834434 62555,6917.897,95.438,540.659,538.866,0.0
51857.0,STARLINK-3571,PAYLOAD,2023-04-12 06:39:18,15.08835217,0.0001279,53.2143,108.4718,97.5119,262.6018,1.6014e-05,-3.3e-07,0.0,0 STARLINK-3571,1 51857U 22022F   23102.27730046 -.00000033  00000-0  16014-4 0  9994,2 51857  53.2143 108.4718 0001279  97.5119 262.6018 15.08835217 62638,6917.895,95.438,540.645,538.875,0.0
51857.0,STARLINK-3571,PAYLOAD,2023-04-13 09:40:51,15.08848609,0.0001302,53.2144,103.4168,92.1266,267.9875,0.00020711,3.011e-05,0.0,0 STARLINK-3571,1 51857U 22022F   23103.40337545  .00003011  00000-0  20711-3 0  9993,2 51857  53.2144 103.4168 0001302  92.1266 267.9875 15.08848609 62801,6917.854,95.437,540.62,538.818,0.0
51857.0,STARLINK-3571,PAYLOAD,2023-04-14 06:20:52,15.08844619,0.0001191,53.2152,99.552,95.3185,264.7943,0.00022824,3.347e-05,0.0,0 STARLINK-3571,1 51857U 22022F   23104.26449965  .00003347  00000-0  22824-3 0  9997,2 51857  53.2152  99.5520 0001191  95.3185 264.7943 15.08844619 62930,6917.866,95.437,540.555,538.907,0.0
51857.0,STARLINK-3571,PAYLOAD,2023-04-15 07:47:02,15.08846883,0.0001163,53.215,94.7955,94.7993,265.3132,0.00015328,2.153e-05,0.0,0 STARLINK-3571,1 51857U 22022F   23105.32433789  .00002153  00000-0  15328-3 0  9997,2 51857  53.2150  94.7955 0001163  94.7993 265.3132 15.08846883 63096,6917.859,95.437,540.529,538.92,0.0
51857.0,STARLINK-3571,PAYLOAD,2023-04-15 15:43:58,15.08838422,0.0001176,53.2151,93.308,91.9404,268.1723,3.2004e-05,2.22e-06,0.0,0 STARLINK-3571,1 51857U 22022F   23105.65554095  .00000222  00000-0  32004-4 0  9993,2 51857  53.2151  93.3080 0001176  91.9404 268.1723 15.08838422 63144,6917.885,95.438,540.564,538.937,0.0
51857.0,STARLINK-3571,PAYLOAD,2023-04-16 07:37:50,15.08843578,0.0001127,53.2159,90.335,89.6552,270.4569,0.00013379,1.842e-05,0.0,0 STARLINK-3571,1 51857U 22022F   23106.31794000  .00001842  00000-0  13379-3 0  9991,2 51857  53.2159  90.3350 0001127  89.6552 270.4569 15.08843578 63246,6917.869,95.437,540.514,538.955,0.0
51857.0,STARLINK-3571,PAYLOAD,2023-04-16 15:34:45,15.0883938,0.0001203,53.2162,88.8485,95.7042,264.4087,7.4871e-05,9.04e-06,0.0,0 STARLINK-3571,1 51857U 22022F   23106.64914231  .00000904  00000-0  74871-4 0  9990,2 51857  53.2162  88.8485 0001203  95.7042 264.4087 15.08839380 63297,6917.882,95.438,540.58,538.915,0.0
51857.0,STARLINK-3571,PAYLOAD,2023-04-17 05:53:14,15.08835362,0.0001306,53.2166,86.1725,103.5498,256.564,-2.4295e-05,-6.74e-06,0.0,0 STARLINK-3571,1 51857U 22022F   23107.24530620 -.00000674  00000-0 -24295-4 0  9994,2 51857  53.2166  86.1725 0001306 103.5498 256.5640 15.08835362 63389,6917.895,95.438,540.663,538.856,0.0
51857.0,STARLINK-3571,PAYLOAD,2023-04-17 09:04:00,15.08834539,0.0001245,53.2157,85.5757,100.0431,260.0702,0.00010821,1.434e-05,0.0,0 STARLINK-3571,1 51857U 22022F   23107.37778657  .00001434  00000-0  10821-3 0  9994,2 51857  53.2157  85.5757 0001245 100.0431 260.0702 15.08834539 63405,6917.897,95.438,540.623,538.901,0.0
51857.0,STARLINK-3571,PAYLOAD,2023-04-17 15:25:33,15.08837865,0.0001184,53.2166,84.3864,89.788,270.3248,8.7934e-05,1.112e-05,0.0,0 STARLINK-3571,1 51857U 22022F   23107.64274806  .00001112  00000-0  87934-4 0  9994,2 51857  53.2166  84.3864 0001184  89.7880 270.3248 15.08837865 63442,6917.887,95.438,540.571,538.933,0.0
